NIMIQ 2                 
1 27632U 02062A   26062.56480060 -.00000079  00000+0  00000+0 0  9990
2 27632   9.2028  57.9921 0006535 287.9362 269.5260  1.00272299 43124
ANIK F2                 
1 28378U 04027A   26062.63578098 -.00000063  00000+0  00000+0 0  9991
2 28378   3.0121  80.8648 0002982 295.5755 262.7153  1.00272256 40207
ANIK F1R                
1 28868U 05036A   26062.56514727 -.00000087  00000+0  00000+0 0  9993
2 28868   4.0428  77.9026 0002836 298.2135 241.3667  1.00272025 45391
ANIK F3                 
1 31102U 07009A   26062.70563469 -.00000015  00000+0  00000+0 0  9994
2 31102   0.9251  85.2209 0002782 263.6404 307.9220  1.00273264 45508
NIMIQ 4                 
1 33373U 08044A   26062.57026064 -.00000234  00000+0  00000+0 0  9999
2 33373   0.0276 102.3184 0002335 253.3254 288.9629  1.00270473 63920
TELSTAR 11N             
1 34111U 09009A   26062.79299516 -.00000265  00000+0  00000+0 0  9994
2 34111   0.0199 131.6279 0002579 200.1911  77.6427  1.00270737 45185
TERRESTAR-1             
1 35496U 09035A   26062.56445392 -.00000068  00000+0  00000+0 0  9991
2 35496   5.0935  48.8335 0002899 301.5224 263.1652  1.00271520 61074
NIMIQ 5                 
1 35873U 09050A   26062.77835104 -.00000271  00000+0  00000+0 0  9990
2 35873   0.0546 271.4057 0002650  71.4131  26.1987  1.00273214 60288
SKYTERRA 1              
1 37218U 10061A   26062.56636060 -.00000129  00000+0  00000+0 0  9998
2 37218   4.9005  50.9141 0001598 291.3941 281.5693  1.00271425 56134
TELSTAR 14R             
1 37602U 11021A   26062.43136793 -.00000295  00000+0  00000+0 0  9990
2 37602   0.0387 274.3950 0002399  73.9963 265.0764  1.00272583 54779
NIMIQ 6                 
1 38342U 12026A   26062.56844063 -.00000188  00000+0  00000+0 0  9999
2 38342   0.0573 279.6248 0002629  57.7600 297.4710  1.00270999 49357
ANIK G1                 
1 39127U 13014A   26062.63656098 -.00000088  00000+0  00000+0 0  9995
2 39127   0.0570 271.1782 0003065  49.7467 322.3156  1.00271605 47190
TELSTAR 12V             
1 41036U 15068A   26062.44090131 -.00000134  00000+0  00000+0 0  9999
2 41036   0.0186 105.7710 0002622 241.4109 317.7331  1.00271442 37562
VIASAT-2                
1 42740U 17029A   26062.78658179 -.00000279  00000+0  00000+0 0  9990
2 42740   0.0266 251.9593 0000595 125.4106 357.4375  1.00272280 32141
LEO 1 (LEO VANTAGE 1)   
1 43113U 18004C   26062.70501101  .00005637  00000+0  39088-3 0  9997
2 43113  99.2487 327.2480 0353399  43.2169 319.6191 14.67114074422010
TELSTAR 19V             
1 43562U 18059A   26062.50274007 -.00000294  00000+0  00000+0 0  9998
2 43562   0.0202 167.0366 0000507 296.5690 175.6253  1.00272659 28083
TELSTAR 18V             
1 43611U 18069A   26062.71989259 -.00000308  00000+0  00000+0 0  9995
2 43611   0.0186 234.2381 0002091 107.0841 217.3103  1.00271539 27574
