[{"OBJECT_NAME":"NIMIQ 2","OBJECT_ID":"2002-062A","EPOCH":"2026-03-03T13:33:18.771840","MEAN_MOTION":1.00272299,"ECCENTRICITY":0.0006535,"INCLINATION":9.2028,"RA_OF_ASC_NODE":57.9921,"ARG_OF_PERICENTER":287.9362,"MEAN_ANOMALY":269.526,"EPHEMERIS_TYPE":0,"CLASSIFICATION_TYPE":"U","NORAD_CAT_ID":27632,"ELEMENT_SET_NO":999,"REV_AT_EPOCH":4312,"BSTAR":0,"MEAN_MOTION_DOT":-7.9e-7,"MEAN_MOTION_DDOT":0},{"OBJECT_NAME":"ANIK F2","OBJECT_ID":"2004-027A","EPOCH":"2026-03-03T15:15:31.476672","MEAN_MOTION":1.00272256,"ECCENTRICITY":0.0002982,"INCLINATION":3.0121,"RA_OF_ASC_NODE":80.8648,"ARG_OF_PERICENTER":295.5755,"MEAN_ANOMALY":262.7153,"EPHEMERIS_TYPE":0,"CLASSIFICATION_TYPE":"U","NORAD_CAT_ID":28378,"ELEMENT_SET_NO":999,"REV_AT_EPOCH":4020,"BSTAR":0,"MEAN_MOTION_DOT":-6.3e-7,"MEAN_MOTION_DDOT":0},{"OBJECT_NAME":"ANIK F1R","OBJECT_ID":"2005-036A","EPOCH":"2026-03-03T13:33:48.724128","MEAN_MOTION":1.00272025,"ECCENTRICITY":0.0002836,"INCLINATION":4.0428,"RA_OF_ASC_NODE":77.9026,"ARG_OF_PERICENTER":298.2135,"MEAN_ANOMALY":241.3667,"EPHEMERIS_TYPE":0,"CLASSIFICATION_TYPE":"U","NORAD_CAT_ID":28868,"ELEMENT_SET_NO":999,"REV_AT_EPOCH":4539,"BSTAR":0,"MEAN_MOTION_DOT":-8.7e-7,"MEAN_MOTION_DDOT":0},{"OBJECT_NAME":"ANIK F3","OBJECT_ID":"2007-009A","EPOCH":"2026-03-03T16:56:06.837216","MEAN_MOTION":1.00273264,"ECCENTRICITY":0.0002782,"INCLINATION":0.9251,"RA_OF_ASC_NODE":85.2209,"ARG_OF_PERICENTER":263.6404,"MEAN_ANOMALY":307.922,"EPHEMERIS_TYPE":0,"CLASSIFICATION_TYPE":"U","NORAD_CAT_ID":31102,"ELEMENT_SET_NO":999,"REV_AT_EPOCH":4550,"BSTAR":0,"MEAN_MOTION_DOT":-1.5e-7,"MEAN_MOTION_DDOT":0},{"OBJECT_NAME":"NIMIQ 4","OBJECT_ID":"2008-044A","EPOCH":"2026-03-03T13:41:10.519296","MEAN_MOTION":1.00270473,"ECCENTRICITY":0.0002335,"INCLINATION":0.0276,"RA_OF_ASC_NODE":102.3184,"ARG_OF_PERICENTER":253.3254,"MEAN_ANOMALY":288.9629,"EPHEMERIS_TYPE":0,"CLASSIFICATION_TYPE":"U","NORAD_CAT_ID":33373,"ELEMENT_SET_NO":999,"REV_AT_EPOCH":6392,"BSTAR":0,"MEAN_MOTION_DOT":-2.34e-6,"MEAN_MOTION_DDOT":0},{"OBJECT_NAME":"TELSTAR 11N","OBJECT_ID":"2009-009A","EPOCH":"2026-03-03T19:01:54.781824","MEAN_MOTION":1.00270737,"ECCENTRICITY":0.0002579,"INCLINATION":0.0199,"RA_OF_ASC_NODE":131.6279,"ARG_OF_PERICENTER":200.1911,"MEAN_ANOMALY":77.6427,"EPHEMERIS_TYPE":0,"CLASSIFICATION_TYPE":"U","NORAD_CAT_ID":34111,"ELEMENT_SET_NO":999,"REV_AT_EPOCH":4518,"BSTAR":0,"MEAN_MOTION_DOT":-2.65e-6,"MEAN_MOTION_DDOT":0},{"OBJECT_NAME":"TERRESTAR-1","OBJECT_ID":"2009-035A","EPOCH":"2026-03-03T13:32:48.818688","MEAN_MOTION":1.0027152,"ECCENTRICITY":0.0002899,"INCLINATION":5.0935,"RA_OF_ASC_NODE":48.8335,"ARG_OF_PERICENTER":301.5224,"MEAN_ANOMALY":263.1652,"EPHEMERIS_TYPE":0,"CLASSIFICATION_TYPE":"U","NORAD_CAT_ID":35496,"ELEMENT_SET_NO":999,"REV_AT_EPOCH":6107,"BSTAR":0,"MEAN_MOTION_DOT":-6.8e-7,"MEAN_MOTION_DDOT":0},{"OBJECT_NAME":"NIMIQ 5","OBJECT_ID":"2009-050A","EPOCH":"2026-03-03T18:40:49.529856","MEAN_MOTION":1.00273214,"ECCENTRICITY":0.000265,"INCLINATION":0.0546,"RA_OF_ASC_NODE":271.4057,"ARG_OF_PERICENTER":71.4131,"MEAN_ANOMALY":26.1987,"EPHEMERIS_TYPE":0,"CLASSIFICATION_TYPE":"U","NORAD_CAT_ID":35873,"ELEMENT_SET_NO":999,"REV_AT_EPOCH":6028,"BSTAR":0,"MEAN_MOTION_DOT":-2.71e-6,"MEAN_MOTION_DDOT":0},{"OBJECT_NAME":"SKYTERRA 1","OBJECT_ID":"2010-061A","EPOCH":"2026-03-03T13:35:33.555840","MEAN_MOTION":1.00271425,"ECCENTRICITY":0.0001598,"INCLINATION":4.9005,"RA_OF_ASC_NODE":50.9141,"ARG_OF_PERICENTER":291.3941,"MEAN_ANOMALY":281.5693,"EPHEMERIS_TYPE":0,"CLASSIFICATION_TYPE":"U","NORAD_CAT_ID":37218,"ELEMENT_SET_NO":999,"REV_AT_EPOCH":5613,"BSTAR":0,"MEAN_MOTION_DOT":-1.29e-6,"MEAN_MOTION_DDOT":0},{"OBJECT_NAME":"TELSTAR 14R","OBJECT_ID":"2011-021A","EPOCH":"2026-03-03T10:21:10.189152","MEAN_MOTION":1.00272583,"ECCENTRICITY":0.00023996,"INCLINATION":0.0387,"RA_OF_ASC_NODE":274.395,"ARG_OF_PERICENTER":73.9963,"MEAN_ANOMALY":265.0764,"EPHEMERIS_TYPE":0,"CLASSIFICATION_TYPE":"U","NORAD_CAT_ID":37602,"ELEMENT_SET_NO":999,"REV_AT_EPOCH":5477,"BSTAR":0,"MEAN_MOTION_DOT":-2.95e-6,"MEAN_MOTION_DDOT":0},{"OBJECT_NAME":"NIMIQ 6","OBJECT_ID":"2012-026A","EPOCH":"2026-03-03T13:38:33.270432","MEAN_MOTION":1.00270999,"ECCENTRICITY":0.0002629,"INCLINATION":0.0573,"RA_OF_ASC_NODE":279.6248,"ARG_OF_PERICENTER":57.76,"MEAN_ANOMALY":297.471,"EPHEMERIS_TYPE":0,"CLASSIFICATION_TYPE":"U","NORAD_CAT_ID":38342,"ELEMENT_SET_NO":999,"REV_AT_EPOCH":4935,"BSTAR":0,"MEAN_MOTION_DOT":-1.88e-6,"MEAN_MOTION_DDOT":0},{"OBJECT_NAME":"ANIK G1","OBJECT_ID":"2013-014A","EPOCH":"2026-03-03T15:16:38.868672","MEAN_MOTION":1.00271605,"ECCENTRICITY":0.0003065,"INCLINATION":0.057,"RA_OF_ASC_NODE":271.1782,"ARG_OF_PERICENTER":49.7467,"MEAN_ANOMALY":322.3156,"EPHEMERIS_TYPE":0,"CLASSIFICATION_TYPE":"U","NORAD_CAT_ID":39127,"ELEMENT_SET_NO":999,"REV_AT_EPOCH":4719,"BSTAR":0,"MEAN_MOTION_DOT":-8.8e-7,"MEAN_MOTION_DDOT":0},{"OBJECT_NAME":"TELSTAR 12V","OBJECT_ID":"2015-068A","EPOCH":"2026-03-03T10:34:53.873184","MEAN_MOTION":1.00271442,"ECCENTRICITY":0.00026229,"INCLINATION":0.0186,"RA_OF_ASC_NODE":105.771,"ARG_OF_PERICENTER":241.4109,"MEAN_ANOMALY":317.7331,"EPHEMERIS_TYPE":0,"CLASSIFICATION_TYPE":"U","NORAD_CAT_ID":41036,"ELEMENT_SET_NO":999,"REV_AT_EPOCH":3756,"BSTAR":0,"MEAN_MOTION_DOT":-1.34e-6,"MEAN_MOTION_DDOT":0},{"OBJECT_NAME":"VIASAT-2","OBJECT_ID":"2017-029A","EPOCH":"2026-03-03T18:52:40.666656","MEAN_MOTION":1.0027228,"ECCENTRICITY":5.95e-5,"INCLINATION":0.0266,"RA_OF_ASC_NODE":251.9593,"ARG_OF_PERICENTER":125.4106,"MEAN_ANOMALY":357.4375,"EPHEMERIS_TYPE":0,"CLASSIFICATION_TYPE":"U","NORAD_CAT_ID":42740,"ELEMENT_SET_NO":999,"REV_AT_EPOCH":3214,"BSTAR":0,"MEAN_MOTION_DOT":-2.79e-6,"MEAN_MOTION_DDOT":0},{"OBJECT_NAME":"LEO 1 (LEO VANTAGE 1)","OBJECT_ID":"2018-004C","EPOCH":"2026-03-03T16:55:12.951264","MEAN_MOTION":14.67114074,"ECCENTRICITY":0.0353399,"INCLINATION":99.2487,"RA_OF_ASC_NODE":327.248,"ARG_OF_PERICENTER":43.2169,"MEAN_ANOMALY":319.6191,"EPHEMERIS_TYPE":0,"CLASSIFICATION_TYPE":"U","NORAD_CAT_ID":43113,"ELEMENT_SET_NO":999,"REV_AT_EPOCH":42201,"BSTAR":0.00039088,"MEAN_MOTION_DOT":5.637e-5,"MEAN_MOTION_DDOT":0},{"OBJECT_NAME":"TELSTAR 19V","OBJECT_ID":"2018-059A","EPOCH":"2026-03-03T12:03:56.742048","MEAN_MOTION":1.00272659,"ECCENTRICITY":5.07e-5,"INCLINATION":0.0202,"RA_OF_ASC_NODE":167.0366,"ARG_OF_PERICENTER":296.569,"MEAN_ANOMALY":175.6253,"EPHEMERIS_TYPE":0,"CLASSIFICATION_TYPE":"U","NORAD_CAT_ID":43562,"ELEMENT_SET_NO":999,"REV_AT_EPOCH":2808,"BSTAR":0,"MEAN_MOTION_DOT":-2.94e-6,"MEAN_MOTION_DDOT":0},{"OBJECT_NAME":"TELSTAR 18V","OBJECT_ID":"2018-069A","EPOCH":"2026-03-03T17:16:38.719776","MEAN_MOTION":1.00271539,"ECCENTRICITY":0.0002091,"INCLINATION":0.0186,"RA_OF_ASC_NODE":234.2381,"ARG_OF_PERICENTER":107.0841,"MEAN_ANOMALY":217.3103,"EPHEMERIS_TYPE":0,"CLASSIFICATION_TYPE":"U","NORAD_CAT_ID":43611,"ELEMENT_SET_NO":999,"REV_AT_EPOCH":2757,"BSTAR":0,"MEAN_MOTION_DOT":-3.08e-6,"MEAN_MOTION_DDOT":0}]
